<?xml version="1.0" encoding="UTF-8"?>
<gpx creator="Wikiloc - https://www.wikiloc.com" version="1.1" schemaLocation="http://www.topografix.com/GPX/1/1 http://www.topografix.com/GPX/1/1/gpx.xsd http://www.garmin.com/xmlschemas/GpxExtensions/v3 http://www.garmin.com/xmlschemas/GpxExtensionsv3.xsd http://www.garmin.com/xmlschemas/TrackPointExtension/v1 http://www.garmin.com/xmlschemas/TrackPointExtensionv1.xsd http://www.garmin.com/xmlschemas/PowerExtension/v1 http://www.garmin.com/xmlschemas/PowerExtensionv1.xsd http://www.topografix.com/GPX/gpx_style/0/2 http://www.topografix.com/GPX/gpx_style/0/2/gpx_style.xsd" xmlns="http://www.topografix.com/GPX/1/1" xmlns:xsi="http://www.w3.org/2001/XMLSchema-instance" xsi:schemaLocation="http://www.topografix.com/GPX/1/1 http://www.topografix.com/GPX/1/1/gpx.xsd http://www.garmin.com/xmlschemas/GpxExtensions/v3 http://www.garmin.com/xmlschemas/GpxExtensionsv3.xsd http://www.garmin.com/xmlschemas/TrackPointExtension/v1 http://www.garmin.com/xmlschemas/TrackPointExtensionv1.xsd http://www.garmin.com/xmlschemas/PowerExtension/v1 http://www.garmin.com/xmlschemas/PowerExtensionv1.xsd http://www.topografix.com/GPX/gpx_style/0/2 http://www.topografix.com/GPX/gpx_style/0/2/gpx_style.xsd" xmlns:gpxtpx="http://www.garmin.com/xmlschemas/TrackPointExtension/v1" xmlns:gpxx="http://www.garmin.com/xmlschemas/GpxExtensions/v3" xmlns:gpxpx="http://www.garmin.com/xmlschemas/PowerExtension/v1" xmlns:gpx_style="http://www.topografix.com/GPX/gpx_style/0/2">
  <metadata>
    <name>CRONO-CXM</name>
    <desc>CRONO-CXM</desc>
    <author>
      <name>gpx.studio</name>
      <link href="https://gpx.studio"/>
    </author>
    <link href="https://www.wikiloc.com/running-trails/3-etapa-crono-califa-mountain-festival-147315764">
      <text>3* Etapa crono Califa Mountain Festival on Wikiloc</text>
    </link>
  </metadata>
  <trk>
    <name>CRONO-CXM</name>
    <cmt>Ruta circular desde Cerro Muriano pasando por: 
- Parque periurbano de los Villares 
- Fuente de la Alcubilla</cmt>
    <desc>Ruta circular desde Cerro Muriano pasando por: 
- Parque periurbano de los Villares 
- Fuente de la Alcubilla</desc>
    <trkseg>
      <trkpt lat="37.97184514801161" lon="-4.804914908241557">
        <ele>608.3565903967246</ele>
      </trkpt>
      <trkpt lat="37.97181226462753" lon="-4.804551782195006">
        <ele>604.970863403641</ele>
      </trkpt>
      <trkpt lat="37.97181226462753" lon="-4.804551782195006">
        <ele>604.970863403641</ele>
      </trkpt>
      <trkpt lat="37.97175264094457" lon="-4.80433822610928">
        <ele>603.2783012925266</ele>
      </trkpt>
      <trkpt lat="37.97175264094457" lon="-4.80433822610928">
        <ele>603.2783012925266</ele>
      </trkpt>
      <trkpt lat="37.97166846625052" lon="-4.804240346237066">
        <ele>602.0962943104956</ele>
      </trkpt>
      <trkpt lat="37.97166846625052" lon="-4.804240346237066">
        <ele>602.0962943104956</ele>
      </trkpt>
      <trkpt lat="37.97158984912622" lon="-4.804221562345276">
        <ele>601.4497605988299</ele>
      </trkpt>
      <trkpt lat="37.97158984912622" lon="-4.804221562345276">
        <ele>601.4497605988299</ele>
      </trkpt>
      <trkpt lat="37.97158984912622" lon="-4.804221562345276">
        <ele>601.4497605988299</ele>
      </trkpt>
      <trkpt lat="37.97126658604681" lon="-4.804474139859707">
        <ele>601.6862704731993</ele>
      </trkpt>
      <trkpt lat="37.97126658604681" lon="-4.804474139859707">
        <ele>601.6862704731993</ele>
      </trkpt>
      <trkpt lat="37.97087538896818" lon="-4.804694030871985">
        <ele>599.4324307999665</ele>
      </trkpt>
      <trkpt lat="37.97055843331058" lon="-4.805098630520817">
        <ele>597.7220601156824</ele>
      </trkpt>
      <trkpt lat="37.970522357807326" lon="-4.80514468155539">
        <ele>597.7797531470202</ele>
      </trkpt>
      <trkpt lat="37.970522357807326" lon="-4.80514468155539">
        <ele>597.7797531470202</ele>
      </trkpt>
      <trkpt lat="37.970522357807326" lon="-4.80514468155539">
        <ele>597.7797531470202</ele>
      </trkpt>
      <trkpt lat="37.970222093195304" lon="-4.805532251224491">
        <ele>601.5736484794634</ele>
      </trkpt>
      <trkpt lat="37.970222093195304" lon="-4.805532251224491">
        <ele>601.5736484794634</ele>
      </trkpt>
      <trkpt lat="37.96992182735448" lon="-4.805712671587571">
        <ele>607.39842532042</ele>
      </trkpt>
      <trkpt lat="37.96992182735448" lon="-4.805712671587571">
        <ele>607.39842532042</ele>
      </trkpt>
      <trkpt lat="37.96949237220005" lon="-4.805543607765713">
        <ele>608.7116084136285</ele>
      </trkpt>
      <trkpt lat="37.96946352475484" lon="-4.80553225137777">
        <ele>608.9017432004882</ele>
      </trkpt>
      <trkpt lat="37.96946352475484" lon="-4.80553225137777">
        <ele>608.9017432004882</ele>
      </trkpt>
      <trkpt lat="37.96924227407365" lon="-4.805605755970106">
        <ele>611.0294039564966</ele>
      </trkpt>
      <trkpt lat="37.96924227407365" lon="-4.805605755970106">
        <ele>611.0294039564966</ele>
      </trkpt>
      <trkpt lat="37.96893673684475" lon="-4.805973278695433">
        <ele>615.5543287366166</ele>
      </trkpt>
      <trkpt lat="37.96893673684475" lon="-4.805973278695433">
        <ele>615.5543287366166</ele>
      </trkpt>
      <trkpt lat="37.968550346439244" lon="-4.8062650212249425">
        <ele>620.9270020298754</ele>
      </trkpt>
      <trkpt lat="37.96849423164113" lon="-4.8063073904787075">
        <ele>621.58745446369</ele>
      </trkpt>
      <trkpt lat="37.96849423164113" lon="-4.8063073904787075">
        <ele>621.58745446369</ele>
      </trkpt>
      <trkpt lat="37.96809136857103" lon="-4.806560752804626">
        <ele>624.284440900246</ele>
      </trkpt>
      <trkpt lat="37.967867344703265" lon="-4.806701642383274">
        <ele>624.2893094414593</ele>
      </trkpt>
      <trkpt lat="37.967867344703265" lon="-4.806701642383274">
        <ele>624.2893094414593</ele>
      </trkpt>
      <trkpt lat="37.967466977135416" lon="-4.806935520631299">
        <ele>623.3561219395554</ele>
      </trkpt>
      <trkpt lat="37.967022688133795" lon="-4.807023414742743">
        <ele>622.9265964737298</ele>
      </trkpt>
      <trkpt lat="37.966578399132175" lon="-4.8071113088541875">
        <ele>624.9594652525317</ele>
      </trkpt>
      <trkpt lat="37.966307" lon="-4.807165">
        <ele>626.631665690836</ele>
      </trkpt>
      <trkpt lat="37.966307" lon="-4.807165">
        <ele>621.861</ele>
      </trkpt>
      <trkpt lat="37.96589" lon="-4.806985">
        <ele>623.687</ele>
      </trkpt>
      <trkpt lat="37.965498" lon="-4.806614">
        <ele>625.635</ele>
      </trkpt>
      <trkpt lat="37.965498" lon="-4.806614">
        <ele>625.3790159331099</ele>
      </trkpt>
      <trkpt lat="37.9653705400044" lon="-4.8060670352607096">
        <ele>625.277198377718</ele>
      </trkpt>
      <trkpt lat="37.96534135317286" lon="-4.805941786804283">
        <ele>625.2155804041315</ele>
      </trkpt>
      <trkpt lat="37.96534135317286" lon="-4.805941786804283">
        <ele>625.2155804041315</ele>
      </trkpt>
      <trkpt lat="37.96533646507304" lon="-4.8053837725685185">
        <ele>625.802952556359</ele>
      </trkpt>
      <trkpt lat="37.96533646507304" lon="-4.8053837725685185">
        <ele>625.802952556359</ele>
      </trkpt>
      <trkpt lat="37.96512138836708" lon="-4.805024163395274">
        <ele>626.7499170808356</ele>
      </trkpt>
      <trkpt lat="37.96512138836708" lon="-4.805024163395274">
        <ele>626.7499170808356</ele>
      </trkpt>
      <trkpt lat="37.96487091184828" lon="-4.804550491056163">
        <ele>626.7190929923213</ele>
      </trkpt>
      <trkpt lat="37.96462043532947" lon="-4.804076818717052">
        <ele>623.9935264646086</ele>
      </trkpt>
      <trkpt lat="37.96458369384618" lon="-4.804007337456227">
        <ele>623.2354595366875</ele>
      </trkpt>
      <trkpt lat="37.96458369384618" lon="-4.804007337456227">
        <ele>623.2354595366875</ele>
      </trkpt>
      <trkpt lat="37.9644028320769" lon="-4.8036043271745825">
        <ele>617.3911678640649</ele>
      </trkpt>
      <trkpt lat="37.964379" lon="-4.80335">
        <ele>614.304090596852</ele>
      </trkpt>
      <trkpt lat="37.964379" lon="-4.80335">
        <ele>613.04</ele>
      </trkpt>
      <trkpt lat="37.964607" lon="-4.802757">
        <ele>617.838</ele>
      </trkpt>
      <trkpt lat="37.965496" lon="-4.801678">
        <ele>609.227</ele>
      </trkpt>
      <trkpt lat="37.965496" lon="-4.801678">
        <ele>608.0832802584421</ele>
      </trkpt>
      <trkpt lat="37.96594044991497" lon="-4.801591427577709">
        <ele>599.8235576199739</ele>
      </trkpt>
      <trkpt lat="37.965964318908675" lon="-4.80158677824258">
        <ele>599.2524258998468</ele>
      </trkpt>
      <trkpt lat="37.965964318908675" lon="-4.80158677824258">
        <ele>599.2524258998468</ele>
      </trkpt>
      <trkpt lat="37.96641084293537" lon="-4.801519531739769">
        <ele>583.4721538482037</ele>
      </trkpt>
      <trkpt lat="37.96655975348672" lon="-4.80149710581594">
        <ele>577.842074873522</ele>
      </trkpt>
      <trkpt lat="37.966994854409165" lon="-4.8013531425305">
        <ele>560.4808959835182</ele>
      </trkpt>
      <trkpt lat="37.96724251970008" lon="-4.801271196694188">
        <ele>552.2996828481761</ele>
      </trkpt>
      <trkpt lat="37.96724251970008" lon="-4.801271196694188">
        <ele>552.2996828481761</ele>
      </trkpt>
      <trkpt lat="37.96769206254729" lon="-4.801258170289382">
        <ele>549.0235207427743</ele>
      </trkpt>
      <trkpt lat="37.967905" lon="-4.801252">
        <ele>550.526468478271</ele>
      </trkpt>
      <trkpt lat="37.967905" lon="-4.801252">
        <ele>549.609</ele>
      </trkpt>
      <trkpt lat="37.96941" lon="-4.801873">
        <ele>546.843</ele>
      </trkpt>
      <trkpt lat="37.970387" lon="-4.800612">
        <ele>597.446</ele>
      </trkpt>
      <trkpt lat="37.970751" lon="-4.800449">
        <ele>601.859</ele>
      </trkpt>
      <trkpt lat="37.971081" lon="-4.800548">
        <ele>611.615</ele>
      </trkpt>
      <trkpt lat="37.971081" lon="-4.800548">
        <ele>605.9139821491672</ele>
      </trkpt>
      <trkpt lat="37.97097978595778" lon="-4.799992235885147">
        <ele>602.2323533437448</ele>
      </trkpt>
      <trkpt lat="37.97093713603644" lon="-4.799758046090318">
        <ele>598.9813616880915</ele>
      </trkpt>
      <trkpt lat="37.970979308610865" lon="-4.799190159168676">
        <ele>593.2426361254528</ele>
      </trkpt>
      <trkpt lat="37.97100067645928" lon="-4.7989024242644405">
        <ele>592.6735701229591</ele>
      </trkpt>
      <trkpt lat="37.97100067645928" lon="-4.7989024242644405">
        <ele>592.6735701229591</ele>
      </trkpt>
      <trkpt lat="37.97100067645928" lon="-4.7989024242644405">
        <ele>592.6735701229591</ele>
      </trkpt>
      <trkpt lat="37.97109400678322" lon="-4.798344444047067">
        <ele>591.6041551219956</ele>
      </trkpt>
      <trkpt lat="37.97112705493328" lon="-4.798146863955452">
        <ele>590.9929783667175</ele>
      </trkpt>
      <trkpt lat="37.97112705493328" lon="-4.798146863955452">
        <ele>590.9929783667175</ele>
      </trkpt>
      <trkpt lat="37.97106511559434" lon="-4.797581899829309">
        <ele>586.7424707368256</ele>
      </trkpt>
      <trkpt lat="37.971024412861524" lon="-4.79721064007299">
        <ele>580.4148749592842</ele>
      </trkpt>
      <trkpt lat="37.97107830848925" lon="-4.796644351420633">
        <ele>577.1097020235438</ele>
      </trkpt>
      <trkpt lat="37.971091" lon="-4.796511">
        <ele>576.5963499799836</ele>
      </trkpt>
      <trkpt lat="37.971091" lon="-4.796511">
        <ele>582.039</ele>
      </trkpt>
      <trkpt lat="37.972005" lon="-4.796847">
        <ele>558.468</ele>
      </trkpt>
      <trkpt lat="37.973405" lon="-4.795281">
        <ele>593.666</ele>
      </trkpt>
      <trkpt lat="37.973923" lon="-4.795662">
        <ele>601.235</ele>
      </trkpt>
      <trkpt lat="37.974488" lon="-4.79558">
        <ele>596.486</ele>
      </trkpt>
      <trkpt lat="37.975268" lon="-4.796054">
        <ele>586.614</ele>
      </trkpt>
      <trkpt lat="37.977164" lon="-4.795414">
        <ele>573.009</ele>
      </trkpt>
      <trkpt lat="37.978184" lon="-4.796695">
        <ele>545.054</ele>
      </trkpt>
      <trkpt lat="37.978705" lon="-4.797658">
        <ele>588.257</ele>
      </trkpt>
      <trkpt lat="37.979211" lon="-4.796945">
        <ele>581.44</ele>
      </trkpt>
      <trkpt lat="37.979324" lon="-4.796458">
        <ele>581.296</ele>
      </trkpt>
      <trkpt lat="37.980259" lon="-4.796702">
        <ele>531.444</ele>
      </trkpt>
      <trkpt lat="37.980447" lon="-4.796159">
        <ele>528.498</ele>
      </trkpt>
      <trkpt lat="37.981447" lon="-4.79573">
        <ele>562.81</ele>
      </trkpt>
      <trkpt lat="37.981503" lon="-4.79532">
        <ele>564.039</ele>
      </trkpt>
      <trkpt lat="37.982183" lon="-4.794934">
        <ele>559.017</ele>
      </trkpt>
      <trkpt lat="37.981957" lon="-4.79318">
        <ele>548.468</ele>
      </trkpt>
      <trkpt lat="37.982382" lon="-4.793247">
        <ele>542.242</ele>
      </trkpt>
      <trkpt lat="37.983178" lon="-4.793673">
        <ele>531.426</ele>
      </trkpt>
      <trkpt lat="37.983482" lon="-4.793989">
        <ele>527.209</ele>
      </trkpt>
      <trkpt lat="37.983916" lon="-4.793547">
        <ele>520.447</ele>
      </trkpt>
      <trkpt lat="37.984578" lon="-4.793589">
        <ele>513.23</ele>
      </trkpt>
      <trkpt lat="37.984718" lon="-4.793806">
        <ele>521.663</ele>
      </trkpt>
      <trkpt lat="37.98456" lon="-4.794069">
        <ele>523.029</ele>
      </trkpt>
      <trkpt lat="37.984818" lon="-4.794697">
        <ele>548.877</ele>
      </trkpt>
      <trkpt lat="37.984647" lon="-4.794989">
        <ele>546.651</ele>
      </trkpt>
      <trkpt lat="37.985057" lon="-4.795538">
        <ele>566.843</ele>
      </trkpt>
      <trkpt lat="37.985123" lon="-4.796136">
        <ele>591.262</ele>
      </trkpt>
      <trkpt lat="37.985311" lon="-4.796431">
        <ele>602.63</ele>
      </trkpt>
      <trkpt lat="37.985029" lon="-4.796333">
        <ele>604.258</ele>
      </trkpt>
      <trkpt lat="37.984362" lon="-4.79667">
        <ele>605.452</ele>
      </trkpt>
      <trkpt lat="37.98413" lon="-4.797492">
        <ele>607.017</ele>
      </trkpt>
      <trkpt lat="37.983756" lon="-4.797899">
        <ele>607.209</ele>
      </trkpt>
      <trkpt lat="37.98321" lon="-4.79818">
        <ele>605.056</ele>
      </trkpt>
      <trkpt lat="37.982653" lon="-4.799654">
        <ele>602.859</ele>
      </trkpt>
      <trkpt lat="37.982249" lon="-4.800228">
        <ele>606.822</ele>
      </trkpt>
      <trkpt lat="37.982588" lon="-4.800252">
        <ele>606.418</ele>
      </trkpt>
      <trkpt lat="37.982793" lon="-4.799998">
        <ele>606.296</ele>
      </trkpt>
      <trkpt lat="37.983329" lon="-4.798817">
        <ele>617.68</ele>
      </trkpt>
      <trkpt lat="37.98366" lon="-4.798889">
        <ele>624.612</ele>
      </trkpt>
      <trkpt lat="37.983925" lon="-4.79878">
        <ele>625.261</ele>
      </trkpt>
      <trkpt lat="37.98466" lon="-4.800111">
        <ele>649.679</ele>
      </trkpt>
      <trkpt lat="37.984902" lon="-4.800235">
        <ele>648.676</ele>
      </trkpt>
      <trkpt lat="37.985241" lon="-4.800228">
        <ele>647.89</ele>
      </trkpt>
      <trkpt lat="37.985948" lon="-4.799439">
        <ele>644.619</ele>
      </trkpt>
      <trkpt lat="37.986229" lon="-4.799413">
        <ele>644.409</ele>
      </trkpt>
      <trkpt lat="37.98679" lon="-4.799712">
        <ele>642.218</ele>
      </trkpt>
      <trkpt lat="37.986989" lon="-4.799997">
        <ele>646.851</ele>
      </trkpt>
      <trkpt lat="37.987236" lon="-4.801256">
        <ele>621.234</ele>
      </trkpt>
      <trkpt lat="37.987582" lon="-4.801967">
        <ele>603.21</ele>
      </trkpt>
      <trkpt lat="37.987494" lon="-4.802384">
        <ele>592.698</ele>
      </trkpt>
      <trkpt lat="37.987312" lon="-4.80256">
        <ele>590.822</ele>
      </trkpt>
      <trkpt lat="37.986667" lon="-4.802721">
        <ele>615.854</ele>
      </trkpt>
      <trkpt lat="37.986471" lon="-4.80241">
        <ele>617.483</ele>
      </trkpt>
      <trkpt lat="37.986279" lon="-4.802407">
        <ele>620.261</ele>
      </trkpt>
      <trkpt lat="37.985951" lon="-4.803182">
        <ele>633.223</ele>
      </trkpt>
      <trkpt lat="37.985069" lon="-4.804037">
        <ele>612.883</ele>
      </trkpt>
      <trkpt lat="37.984836" lon="-4.804769">
        <ele>609.611</ele>
      </trkpt>
      <trkpt lat="37.984887" lon="-4.806303">
        <ele>607.809</ele>
      </trkpt>
      <trkpt lat="37.984414" lon="-4.806359">
        <ele>608.023</ele>
      </trkpt>
      <trkpt lat="37.983426" lon="-4.806014">
        <ele>594.266</ele>
      </trkpt>
      <trkpt lat="37.98272" lon="-4.806574">
        <ele>586.279</ele>
      </trkpt>
      <trkpt lat="37.98248" lon="-4.806295">
        <ele>575.865</ele>
      </trkpt>
      <trkpt lat="37.98205" lon="-4.80619">
        <ele>558.623</ele>
      </trkpt>
      <trkpt lat="37.9816" lon="-4.805807">
        <ele>540.877</ele>
      </trkpt>
      <trkpt lat="37.981256" lon="-4.805844">
        <ele>543.889</ele>
      </trkpt>
      <trkpt lat="37.980797" lon="-4.805374">
        <ele>574.448</ele>
      </trkpt>
      <trkpt lat="37.980797" lon="-4.805374">
        <ele>574.7621426818691</ele>
      </trkpt>
      <trkpt lat="37.98050473158666" lon="-4.804940464471782">
        <ele>594.4014665714714</ele>
      </trkpt>
      <trkpt lat="37.98027551127912" lon="-4.804600451173826">
        <ele>610.8200502790772</ele>
      </trkpt>
      <trkpt lat="37.98027551127912" lon="-4.804600451173826">
        <ele>610.8200502790772</ele>
      </trkpt>
      <trkpt lat="37.98002413627478" lon="-4.804182568527921">
        <ele>620.8130963515047</ele>
      </trkpt>
      <trkpt lat="37.98002413627478" lon="-4.804182568527921">
        <ele>620.8130963515047</ele>
      </trkpt>
      <trkpt lat="37.98010214929941" lon="-4.8038196704418965">
        <ele>620.9313111274861</ele>
      </trkpt>
      <trkpt lat="37.98007173342621" lon="-4.803250504938687">
        <ele>622.2039823733256</ele>
      </trkpt>
      <trkpt lat="37.98006747685429" lon="-4.803170852650453">
        <ele>622.226961992605</ele>
      </trkpt>
      <trkpt lat="37.98006747685429" lon="-4.803170852650453">
        <ele>622.226961992605</ele>
      </trkpt>
      <trkpt lat="37.98006747685429" lon="-4.803170852650453">
        <ele>622.226961992605</ele>
      </trkpt>
      <trkpt lat="37.9799138074504" lon="-4.802634728037973">
        <ele>617.1736379551968</ele>
      </trkpt>
      <trkpt lat="37.97989411438317" lon="-4.8025660225066815">
        <ele>616.2097831671423</ele>
      </trkpt>
      <trkpt lat="37.97989411438317" lon="-4.8025660225066815">
        <ele>616.2097831671423</ele>
      </trkpt>
      <trkpt lat="37.979656978844694" lon="-4.802081330985533">
        <ele>608.9826236204835</ele>
      </trkpt>
      <trkpt lat="37.97941984330622" lon="-4.801596639464383">
        <ele>603.4126186896567</ele>
      </trkpt>
      <trkpt lat="37.97927000609553" lon="-4.801290380748213">
        <ele>599.5182930820389</ele>
      </trkpt>
      <trkpt lat="37.97927000609553" lon="-4.801290380748213">
        <ele>599.5182930820389</ele>
      </trkpt>
      <trkpt lat="37.979131314644334" lon="-4.801059445602732">
        <ele>598.8081941776004</ele>
      </trkpt>
      <trkpt lat="37.979131314644334" lon="-4.801059445602732">
        <ele>598.8081941776004</ele>
      </trkpt>
      <trkpt lat="37.97889727222616" lon="-4.800663556781245">
        <ele>599.1672941538571</ele>
      </trkpt>
      <trkpt lat="37.97889727222616" lon="-4.800663556781245">
        <ele>599.1672941538571</ele>
      </trkpt>
      <trkpt lat="37.978941289054504" lon="-4.800095833479613">
        <ele>597.3759100168278</ele>
      </trkpt>
      <trkpt lat="37.97894928171671" lon="-4.799992745166605">
        <ele>596.3112835613395</ele>
      </trkpt>
      <trkpt lat="37.97894928171671" lon="-4.799992745166605">
        <ele>596.3112835613395</ele>
      </trkpt>
      <trkpt lat="37.97923533325731" lon="-4.800410627811232">
        <ele>600.7009624087638</ele>
      </trkpt>
      <trkpt lat="37.97923533325731" lon="-4.800410627811232">
        <ele>600.7009624087638</ele>
      </trkpt>
      <trkpt lat="37.97944337004101" lon="-4.800850504280362">
        <ele>597.7500883949185</ele>
      </trkpt>
      <trkpt lat="37.97944337004101" lon="-4.800850504280362">
        <ele>597.7500883949185</ele>
      </trkpt>
      <trkpt lat="37.97969474703466" lon="-4.801147420896768">
        <ele>592.2729561204759</ele>
      </trkpt>
      <trkpt lat="37.97969474703466" lon="-4.801147420896768">
        <ele>592.2729561204759</ele>
      </trkpt>
      <trkpt lat="37.98001270615275" lon="-4.801550802613553">
        <ele>592.4600093100095</ele>
      </trkpt>
      <trkpt lat="37.98002413627478" lon="-4.801565303541452">
        <ele>592.5358676717167</ele>
      </trkpt>
      <trkpt lat="37.98002413627478" lon="-4.801565303541452">
        <ele>592.5358676717167</ele>
      </trkpt>
      <trkpt lat="37.98044322213391" lon="-4.801772067970952">
        <ele>590.7209292016531</ele>
      </trkpt>
      <trkpt lat="37.98049221317801" lon="-4.801796238686961">
        <ele>590.7674832636054</ele>
      </trkpt>
      <trkpt lat="37.98049221317801" lon="-4.801796238686961">
        <ele>590.7674832636054</ele>
      </trkpt>
      <trkpt lat="37.98069157835958" lon="-4.801917204716489">
        <ele>591.1497588811507</ele>
      </trkpt>
      <trkpt lat="37.98069157835958" lon="-4.801917204716489">
        <ele>591.1497588811507</ele>
      </trkpt>
      <trkpt lat="37.98106430311644" lon="-4.80175225104054">
        <ele>591.4217701289135</ele>
      </trkpt>
      <trkpt lat="37.981352639414304" lon="-4.801535793249489">
        <ele>590.9324794054316</ele>
      </trkpt>
      <trkpt lat="37.981352639414304" lon="-4.801535793249489">
        <ele>593.6797733097226</ele>
      </trkpt>
      <trkpt lat="37.981426" lon="-4.801458">
        <ele>593.887</ele>
      </trkpt>
      <trkpt lat="37.982033" lon="-4.801072">
        <ele>593.615</ele>
      </trkpt>
      <trkpt lat="37.982484" lon="-4.800327">
        <ele>604.809</ele>
      </trkpt>
      <trkpt lat="37.982339" lon="-4.800178">
        <ele>605.672</ele>
      </trkpt>
      <trkpt lat="37.981539" lon="-4.800852">
        <ele>594.215</ele>
      </trkpt>
      <trkpt lat="37.980528" lon="-4.801362">
        <ele>589.018</ele>
      </trkpt>
      <trkpt lat="37.980285" lon="-4.801333">
        <ele>588.234</ele>
      </trkpt>
      <trkpt lat="37.979894" lon="-4.800885">
        <ele>589.652</ele>
      </trkpt>
      <trkpt lat="37.979705" lon="-4.800024">
        <ele>587.836</ele>
      </trkpt>
      <trkpt lat="37.979332" lon="-4.799691">
        <ele>588.018</ele>
      </trkpt>
      <trkpt lat="37.979044" lon="-4.798953">
        <ele>588.647</ele>
      </trkpt>
      <trkpt lat="37.978785" lon="-4.798808">
        <ele>587.055</ele>
      </trkpt>
      <trkpt lat="37.978314" lon="-4.798971">
        <ele>586.671</ele>
      </trkpt>
      <trkpt lat="37.97794" lon="-4.799605">
        <ele>578.241</ele>
      </trkpt>
      <trkpt lat="37.976804" lon="-4.800464">
        <ele>576.215</ele>
      </trkpt>
      <trkpt lat="37.975984" lon="-4.800531">
        <ele>581.209</ele>
      </trkpt>
      <trkpt lat="37.975349" lon="-4.800041">
        <ele>579.898</ele>
      </trkpt>
      <trkpt lat="37.974994" lon="-4.800006">
        <ele>578.471</ele>
      </trkpt>
      <trkpt lat="37.974375" lon="-4.80069">
        <ele>582.064</ele>
      </trkpt>
      <trkpt lat="37.973076" lon="-4.801635">
        <ele>600.62</ele>
      </trkpt>
      <trkpt lat="37.972583" lon="-4.802446">
        <ele>608.488</ele>
      </trkpt>
      <trkpt lat="37.972179" lon="-4.802801">
        <ele>608.432</ele>
      </trkpt>
      <trkpt lat="37.97145" lon="-4.802824">
        <ele>601.284</ele>
      </trkpt>
      <trkpt lat="37.9712" lon="-4.802378">
        <ele>604.093</ele>
      </trkpt>
      <trkpt lat="37.970861" lon="-4.802355">
        <ele>601.441</ele>
      </trkpt>
      <trkpt lat="37.969705" lon="-4.803126">
        <ele>566.681</ele>
      </trkpt>
      <trkpt lat="37.966041" lon="-4.804932">
        <ele>618.261</ele>
      </trkpt>
      <trkpt lat="37.965505" lon="-4.805273">
        <ele>626.017</ele>
      </trkpt>
      <trkpt lat="37.965319" lon="-4.805726">
        <ele>626.809</ele>
      </trkpt>
      <trkpt lat="37.965355" lon="-4.806257">
        <ele>625.039</ele>
      </trkpt>
      <trkpt lat="37.965631" lon="-4.806832">
        <ele>627.492</ele>
      </trkpt>
      <trkpt lat="37.966288" lon="-4.807278">
        <ele>624.215</ele>
      </trkpt>
      <trkpt lat="37.966288" lon="-4.807278">
        <ele>627.0436300064207</ele>
      </trkpt>
      <trkpt lat="37.96672895040875" lon="-4.807166283267653">
        <ele>624.3004349301052</ele>
      </trkpt>
      <trkpt lat="37.9671699008175" lon="-4.807054566535307">
        <ele>622.4731056966828</ele>
      </trkpt>
      <trkpt lat="37.96748607699051" lon="-4.8069744619063215">
        <ele>622.8299361462635</ele>
      </trkpt>
      <trkpt lat="37.96748607699051" lon="-4.8069744619063215">
        <ele>622.8299361462635</ele>
      </trkpt>
      <trkpt lat="37.96788073253145" lon="-4.806701104826995">
        <ele>624.217843376197</ele>
      </trkpt>
      <trkpt lat="37.968229042647934" lon="-4.806459848778957">
        <ele>623.9496868917688</ele>
      </trkpt>
      <trkpt lat="37.968229042647934" lon="-4.806459848778957">
        <ele>623.9496868917688</ele>
      </trkpt>
      <trkpt lat="37.96864958987958" lon="-4.806257949238591">
        <ele>619.8424850851303</ele>
      </trkpt>
      <trkpt lat="37.96880897959897" lon="-4.8061814282775295">
        <ele>617.9707243122981</ele>
      </trkpt>
      <trkpt lat="37.96880897959897" lon="-4.8061814282775295">
        <ele>618.0278253584646</ele>
      </trkpt>
      <trkpt lat="37.96911370651863" lon="-4.805761993678525">
        <ele>612.9252840448415</ele>
      </trkpt>
      <trkpt lat="37.96911958254776" lon="-4.805753905748759">
        <ele>612.8253246586318</ele>
      </trkpt>
      <trkpt lat="37.96911958254776" lon="-4.805753905748759">
        <ele>612.8253246586318</ele>
      </trkpt>
      <trkpt lat="37.96938242867522" lon="-4.805552304909725">
        <ele>609.7328574694372</ele>
      </trkpt>
      <trkpt lat="37.96938242867522" lon="-4.805552304909725">
        <ele>609.7328574694372</ele>
      </trkpt>
      <trkpt lat="37.96981866317626" lon="-4.80569064499166">
        <ele>607.8597145914295</ele>
      </trkpt>
      <trkpt lat="37.96984699162208" lon="-4.805699628599115">
        <ele>607.774426508843</ele>
      </trkpt>
      <trkpt lat="37.96984699162208" lon="-4.805699628599115">
        <ele>607.774426508843</ele>
      </trkpt>
      <trkpt lat="37.970224157410655" lon="-4.80538906528603">
        <ele>598.069067449496</ele>
      </trkpt>
      <trkpt lat="37.970543830822265" lon="-4.805125841958727">
        <ele>597.8752314838122</ele>
      </trkpt>
      <trkpt lat="37.970543830822265" lon="-4.805125841958727">
        <ele>597.8752314838122</ele>
      </trkpt>
      <trkpt lat="37.97087485577152" lon="-4.804739796433972">
        <ele>599.7256775044846</ele>
      </trkpt>
      <trkpt lat="37.97092281060931" lon="-4.804683870889505">
        <ele>599.9051429608644</ele>
      </trkpt>
      <trkpt lat="37.97092281060931" lon="-4.804683870889505">
        <ele>599.9051429608644</ele>
      </trkpt>
      <trkpt lat="37.971212518315184" lon="-4.804547333109383">
        <ele>601.7930179105379</ele>
      </trkpt>
      <trkpt lat="37.971212518315184" lon="-4.804547333109383">
        <ele>601.7930179105379</ele>
      </trkpt>
      <trkpt lat="37.97159552447779" lon="-4.804277845432466">
        <ele>601.8767592356076</ele>
      </trkpt>
      <trkpt lat="37.97159552447779" lon="-4.804277845432466">
        <ele>601.8767592356076</ele>
      </trkpt>
      <trkpt lat="37.971709063923896" lon="-4.804510831853008">
        <ele>604.1158379896312</ele>
      </trkpt>
      <trkpt lat="37.971709063923896" lon="-4.804510831853008">
        <ele>604.1158379896312</ele>
      </trkpt>
      <trkpt lat="37.97180590625412" lon="-4.804955624111301">
        <ele>608.2715942151465</ele>
      </trkpt>
    </trkseg>
  </trk>
</gpx>
